NORAD_CAT_ID,OBJECT_NAME,OBJECT_TYPE,EPOCH,MEAN_MOTION,ECCENTRICITY,INCLINATION,RA_OF_ASC_NODE,ARG_OF_PERICENTER,MEAN_ANOMALY,BSTAR,MEAN_MOTION_DOT,MEAN_MOTION_DDOT,TLE_LINE0,TLE_LINE1,TLE_LINE2,SEMIMAJOR_AXIS,PERIOD,APOGEE,PERIGEE,DECAYED
53824.0,STARLINK-4757,PAYLOAD,2023-12-27 21:13:46,15.08855504,0.0001833,53.218,308.155,110.4836,249.6353,0.00032318,4.861e-05,0.0,0 STARLINK-4757,1 53824U 22114G   23361.88456611  .00004861  00000-0  32318-3 0  9995,2 53824  53.2180 308.1550 0001833 110.4836 249.6353 15.08855504 71543,6917.833,95.437,540.966,538.43,0.0
53824.0,STARLINK-4757,PAYLOAD,2023-12-28 03:35:18,15.08862502,0.0001697,53.2182,306.9676,97.6858,262.4327,0.00049943,7.674e-05,0.0,0 STARLINK-4757,1 53824U 22114G   23362.14952349  .00007674  00000-0  49943-3 0  9991,2 53824  53.2182 306.9676 0001697  97.6858 262.4327 15.08862502 71133,6917.812,95.436,540.851,538.503,0.0
53824.0,STARLINK-4757,PAYLOAD,2023-12-28 06:46:04,15.08867375,0.00017,53.2183,306.3706,95.8515,264.2671,0.00058788,9.087e-05,0.0,0 STARLINK-4757,1 53824U 22114G   23362.28200094  .00009087  00000-0  58788-3 0  9996,2 53824  53.2183 306.3706 0001700  95.8515 264.2671 15.08867375 71604,6917.797,95.436,540.838,538.486,0.0
53824.0,STARLINK-4757,PAYLOAD,2023-12-28 19:29:10,15.08847475,0.0002447,53.2184,303.9943,89.4596,270.6677,2.8221e-05,1.61e-06,0.0,0 STARLINK-4757,1 53824U 22114G   23362.81192632  .00000161  00000-0  28221-4 0  9997,2 53824  53.2184 303.9943 0002447  89.4596 270.6677 15.08847475 71233,6917.858,95.437,541.415,538.03,0.0
53824.0,STARLINK-4757,PAYLOAD,2023-12-29 01:50:43,15.08835021,0.0001547,53.2177,302.8025,86.883,273.2339,-0.00020143,-3.492e-05,0.0,0 STARLINK-4757,1 53824U 22114G   23363.07688885 -.00003492  00000-0 -20143-3 0  9992,2 53824  53.2177 302.8025 0001547  86.8830 273.2339 15.08835021 71278,6917.896,95.438,540.831,538.69,0.0
53824.0,STARLINK-4757,PAYLOAD,2023-12-30 03:16:53,15.08842969,0.0001587,53.2171,298.0457,71.6383,288.4781,0.00058548,9.043e-05,0.0,0 STARLINK-4757,1 53824U 22114G   23364.13673566  .00009043  00000-0  58548-3 0  9996,2 53824  53.2171 298.0457 0001587  71.6383 288.4781 15.08842969 71432,6917.871,95.437,540.834,538.638,0.0
53824.0,STARLINK-4757,PAYLOAD,2023-12-30 19:10:46,15.08816367,0.0001651,53.217,295.0724,81.7608,278.3571,-5.0632e-05,-1.093e-05,0.0,0 STARLINK-4757,1 53824U 22114G   23364.79915228 -.00001093  00000-0 -50632-4 0  9998,2 53824  53.2170 295.0724 0001651  81.7608 278.3571 15.08816367 71538,6917.953,95.439,540.96,538.675,0.0
53824.0,STARLINK-4757,PAYLOAD,2023-12-31 03:07:44,15.08760536,0.0001757,53.2166,293.5879,84.7039,275.4153,-0.0012859,-0.00020651,0.0,0 STARLINK-4757,1 53824U 22114G   23365.13037052 -.00020651  00000-0 -12859-2 0  9995,2 53824  53.2166 293.5879 0001757  84.7039 275.4153 15.08760536 71580,6918.123,95.443,541.204,538.773,0.0
53824.0,STARLINK-4757,PAYLOAD,2023-12-31 04:43:06,15.08820746,0.0001496,53.2163,293.2917,78.4739,281.6421,0.0011666,0.00018317,0.0,0 STARLINK-4757,1 53824U 22114G   23365.19660322  .00018317  00000-0  11666-2 0  9992,2 53824  53.2163 293.2917 0001496  78.4739 281.6421 15.08820746 71592,6917.939,95.439,540.839,538.769,0.0
53824.0,STARLINK-4757,PAYLOAD,2024-01-01 04:33:53,15.0888024,0.0001372,53.2163,288.8291,78.8939,281.2207,0.0018065,0.00028611,0.0,0 STARLINK-4757,1 53824U 22114G   24001.19019957  .00028611  00000-0  18065-2 0  9990,2 53824  53.2163 288.8291 0001372  78.8939 281.2207 15.08880240 71746,6917.757,95.435,540.572,538.673,0.0
53824.0,STARLINK-4757,PAYLOAD,2024-01-02 01:13:52,15.08882756,0.0001526,53.2164,284.9628,79.5901,280.5263,0.00061141,9.467e-05,0.0,0 STARLINK-4757,1 53824U 22114G   24002.05130265  .00009467  00000-0  61141-3 0  9994,2 53824  53.2164 284.9628 0001526  79.5901 280.5263 15.08882756 71878,6917.75,95.435,540.67,538.559,0.0
53824.0,STARLINK-4757,PAYLOAD,2024-01-02 04:24:38,15.08884587,0.0001422,53.2161,284.3686,85.1845,274.9309,0.00087357,0.00013659,0.0,0 STARLINK-4757,1 53824U 22114G   24002.18377935  .00013659  00000-0  87357-3 0  9990,2 53824  53.2161 284.3686 0001422  85.1845 274.9309 15.08884587 72343,6917.744,95.435,540.593,538.625,0.0
53824.0,STARLINK-4757,PAYLOAD,2024-01-02 21:53:52,15.08857218,0.0002204,53.2193,281.0906,128.1323,231.9868,0.00033964,5.124e-05,0.0,0 STARLINK-4757,1 53824U 22114G   24002.91241266  .00005124  00000-0  33964-3 0  9991,2 53824  53.2193 281.0906 0002204 128.1323 231.9868 15.08857218 72451,6917.828,95.436,541.217,538.168,0.0
53824.0,STARLINK-4757,PAYLOAD,2024-01-03 01:04:38,15.08856529,0.0001446,53.2168,280.4931,99.6334,260.4822,1.3824e-05,-6.8e-07,0.0,0 STARLINK-4757,1 53824U 22114G   24003.04489445 -.00000068  00000-0  13824-4 0  9996,2 53824  53.2168 280.4931 0001446  99.6334 260.4822 15.08856529 72029,6917.83,95.437,540.695,538.695,0.0
53824.0,STARLINK-4757,PAYLOAD,2024-01-03 04:15:25,15.08852994,0.0001393,53.2164,279.9061,105.1678,254.9469,-8.4709e-05,-1.636e-05,0.0,0 STARLINK-4757,1 53824U 22114G   24003.17737370 -.00001636  00000-0 -84709-4 0  9996,2 53824  53.2164 279.9061 0001393 105.1678 254.9469 15.08852994 72495,6917.841,95.437,540.669,538.742,0.0
53824.0,STARLINK-4757,PAYLOAD,2024-01-03 21:44:39,15.08843273,0.0001422,53.2172,276.6341,92.1955,267.92,-0.00019986,-3.468e-05,0.0,0 STARLINK-4757,1 53824U 22114G   24003.90601842 -.00003468  00000-0 -19986-3 0  9990,2 53824  53.2172 276.6341 0001422  92.1955 267.9200 15.08843273 72605,6917.87,95.437,540.719,538.752,0.0
53824.0,STARLINK-4757,PAYLOAD,2024-01-04 04:06:12,15.0884398,0.0001481,53.2166,275.4468,96.8379,263.2781,-0.00014005,-2.516e-05,0.0,0 STARLINK-4757,1 53824U 22114G   24004.17097604 -.00002516  00000-0 -14005-3 0  9995,2 53824  53.2166 275.4468 0001481  96.8379 263.2781 15.08843980 72193,6917.868,95.437,540.758,538.709,0.0
53824.0,STARLINK-4757,PAYLOAD,2024-01-04 21:35:27,15.08838512,0.0001378,53.2166,272.1765,86.0319,274.0831,5.651e-06,-1.98e-06,0.0,0 STARLINK-4757,1 53824U 22114G   24004.89961950 -.00000198  00000-0  56510-5 0  9990,2 53824  53.2166 272.1765 0001378  86.0319 274.0831 15.08838512 72750,6917.885,95.438,540.703,538.797,0.0
53824.0,STARLINK-4757,PAYLOAD,2024-01-05 00:46:13,15.08841784,0.0001498,53.217,271.5806,88.0976,272.0188,8.5056e-05,1.066e-05,0.0,0 STARLINK-4757,1 53824U 22114G   24005.03209834  .00001066  00000-0  85056-4 0  9993,2 53824  53.2170 271.5806 0001498  88.0976 272.0188 15.08841784 72778,6917.875,95.437,540.776,538.704,0.0
53824.0,STARLINK-4757,PAYLOAD,2024-01-05 21:26:14,15.08833334,0.0001565,53.2166,267.7149,111.9468,248.1691,0.00011596,1.558e-05,0.0,0 STARLINK-4757,1 53824U 22114G   24005.89322393  .00001558  00000-0  11596-3 0  9996,2 53824  53.2166 267.7149 0001565 111.9468 248.1691 15.08833334 72907,6917.901,95.438,540.848,538.683,0.0
53824.0,STARLINK-4757,PAYLOAD,2024-01-06 03:47:47,15.08835991,0.0001624,53.2167,266.5269,103.9619,256.1554,9.0713e-05,1.156e-05,0.0,0 STARLINK-4757,1 53824U 22114G   24006.15818344  .00001156  00000-0  90713-4 0  9995,2 53824  53.2167 266.5269 0001624 103.9619 256.1554 15.08835991 72495,6917.893,95.438,540.881,538.634,0.0
53824.0,STARLINK-4757,PAYLOAD,2024-01-06 21:17:01,15.08841141,0.0001539,53.2169,263.2559,96.2907,263.826,-1.0495e-05,-4.55e-06,0.0,0 STARLINK-4757,1 53824U 22114G   24006.88682284 -.00000455  00000-0 -10495-4 0  9999,2 53824  53.2169 263.2559 0001539  96.2907 263.8260 15.08841141 73058,6917.877,95.437,540.807,538.677,0.0
53824.0,STARLINK-4757,PAYLOAD,2024-01-07 03:38:34,15.08841721,0.0001516,53.2172,262.0665,93.8512,266.2654,0.00016879,2.399e-05,0.0,0 STARLINK-4757,1 53824U 22114G   24007.15178299  .00002399  00000-0  16879-3 0  9994,2 53824  53.2172 262.0665 0001516  93.8512 266.2654 15.08841721 73099,6917.875,95.437,540.789,538.691,0.0
53824.0,STARLINK-4757,PAYLOAD,2024-01-07 22:43:12,15.0884086,0.0001663,53.2172,258.497,108.3718,251.7455,4.8102e-05,4.78e-06,0.0,0 STARLINK-4757,1 53824U 22114G   24007.94666806  .00000478  00000-0  48102-4 0  9998,2 53824  53.2172 258.4970 0001663 108.3718 251.7455 15.08840860 73215,6917.878,95.438,540.893,538.592,0.0
53824.0,STARLINK-4757,PAYLOAD,2024-01-08 00:18:35,15.08842285,0.0001591,53.2172,258.2006,102.7635,257.3535,6.5379e-05,7.53e-06,0.0,0 STARLINK-4757,1 53824U 22114G   24008.01290721  .00000753  00000-0  65379-4 0  9997,2 53824  53.2172 258.2006 0001591 102.7635 257.3535 15.08842285 72773,6917.873,95.437,540.839,538.638,0.0
53824.0,STARLINK-4757,PAYLOAD,2024-01-08 22:33:58,15.08845169,0.0001606,53.2162,254.0372,92.0762,268.0414,0.00010524,1.387e-05,0.0,0 STARLINK-4757,1 53824U 22114G   24008.94026488  .00001387  00000-0  10524-3 0  9991,2 53824  53.2162 254.0372 0001606  92.0762 268.0414 15.08845169 73366,6917.865,95.437,540.841,538.619,0.0
53824.0,STARLINK-4757,PAYLOAD,2024-01-09 19:13:59,15.08844797,0.0001556,53.2158,250.1724,93.8521,266.2649,0.00012239,1.661e-05,0.0,0 STARLINK-4757,1 53824U 22114G   24009.80138495  .00001661  00000-0  12239-3 0  9999,2 53824  53.2158 250.1724 0001556  93.8521 266.2649 15.08844797 73046,6917.866,95.437,540.807,538.654,0.0
53824.0,STARLINK-4757,PAYLOAD,2024-01-09 22:24:45,15.08845217,0.0001574,53.2159,249.5779,92.1275,267.9898,0.00012278,1.667e-05,0.0,0 STARLINK-4757,1 53824U 22114G   24009.93386454  .00001667  00000-0  12278-3 0  9992,2 53824  53.2159 249.5779 0001574  92.1275 267.9898 15.08845217 73511,6917.864,95.437,540.818,538.641,0.0
53824.0,STARLINK-4757,PAYLOAD,2024-01-10 19:04:46,15.08839782,0.0001621,53.2169,245.7125,98.5002,261.6174,3.9999e-05,3.49e-06,0.0,0 STARLINK-4757,1 53824U 22114G   24010.79498757  .00000349  00000-0  39999-4 0  9994,2 53824  53.2169 245.7125 0001621  98.5002 261.6174 15.08839782 73198,6917.881,95.438,540.867,538.625,0.0
53824.0,STARLINK-4757,PAYLOAD,2024-01-11 01:26:19,15.08842865,0.0001572,53.2162,244.5216,92.4645,267.6527,6.3732e-05,7.27e-06,0.0,0 STARLINK-4757,1 53824U 22114G   24011.05994480  .00000727  00000-0  63732-4 0  9990,2 53824  53.2162 244.5216 0001572  92.4645 267.6527 15.08842865 73688,6917.872,95.437,540.824,538.649,0.0
